{
  "type": "FeatureCollection",
  "features": [
    {
      "type": "Feature",
      "properties": {
        "norad_id": 28054,
        "name": "DMSP 5D-3 F16 (USA 172)",
        "group": "weather",
        "lat": -24.529634302760904,
        "lon": 21.905956702487188,
        "alt_km": 847.3153306655122,
        "timestamp": "2025-12-26T04:40:05.429397+00:00",
        "meta_object_name": "DMSP 5D-3 F16 (USA 172)",
        "meta_object_id": "2003-048A",
        "meta_epoch": "2025-12-25T23:49:56.145216",
        "meta_mean_motion": 14.14428759,
        "meta_eccentricity": 0.00062437,
        "meta_inclination": 99.0038,
        "meta_ra_of_asc_node": 17.5536,
        "meta_arg_of_pericenter": 278.2433,
        "meta_mean_anomaly": 111.5126,
        "meta_ephemeris_type": 0,
        "meta_classification_type": "U",
        "meta_norad_cat_id": 28054,
        "meta_element_set_no": 999,
        "meta_rev_at_epoch": 14500,
        "meta_bstar": 7.9157073e-05,
        "meta_mean_motion_dot": 1.06e-06,
        "meta_mean_motion_ddot": 0,
        "tle_line1": "1 28054U 03048A   25359.99301094  .00000106  00000+0  79157-4 0  9992",
        "tle_line2": "2 28054  99.0038  17.5536 0006243 278.2433 111.5126 14.14428759145003"
      },
      "geometry": {
        "type": "Point",
        "coordinates": [
          21.905956702487188,
          -24.529634302760904
        ]
      }
    },
    {
      "type": "Feature",
      "properties": {
        "norad_id": 28912,
        "name": "METEOSAT-9 (MSG-2)",
        "group": "weather",
        "lat": 4.014578854904311,
        "lon": -150.59242477992655,
        "alt_km": 35974.95668575089,
        "timestamp": "2025-12-26T04:40:05.429453+00:00",
        "meta_object_name": "METEOSAT-9 (MSG-2)",
        "meta_object_id": "2005-049B",
        "meta_epoch": "2025-12-24T18:27:10.310976",
        "meta_mean_motion": 1.00268275,
        "meta_eccentricity": 0.00719695,
        "meta_inclination": 8.9553,
        "meta_ra_of_asc_node": 55.846,
        "meta_arg_of_pericenter": 282.2974,
        "meta_mean_anomaly": 77.0088,
        "meta_ephemeris_type": 0,
        "meta_classification_type": "U",
        "meta_norad_cat_id": 28912,
        "meta_element_set_no": 999,
        "meta_rev_at_epoch": 524,
        "meta_bstar": 0,
        "meta_mean_motion_dot": 1.45e-06,
        "meta_mean_motion_ddot": 0,
        "tle_line1": "1 28912U 05049B   25358.76886934  .00000145  00000+0  00000+0 0  9992",
        "tle_line2": "2 28912   8.9553  55.8460 0071969 282.2974  77.0088  1.00268275  5240"
      },
      "geometry": {
        "type": "Point",
        "coordinates": [
          -150.59242477992655,
          4.014578854904311
        ]
      }
    },
    {
      "type": "Feature",
      "properties": {
        "norad_id": 29522,
        "name": "DMSP 5D-3 F17 (USA 191)",
        "group": "weather",
        "lat": -59.53746030925629,
        "lon": 20.46411088355466,
        "alt_km": 852.639163393228,
        "timestamp": "2025-12-26T04:40:05.429472+00:00",
        "meta_object_name": "DMSP 5D-3 F17 (USA 191)",
        "meta_object_id": "2006-050A",
        "meta_epoch": "2025-12-25T23:51:48.914496",
        "meta_mean_motion": 14.14925066,
        "meta_eccentricity": 0.00099768,
        "meta_inclination": 98.7393,
        "meta_ra_of_asc_node": 5.1074,
        "meta_arg_of_pericenter": 185.4741,
        "meta_mean_anomaly": 174.6325,
        "meta_ephemeris_type": 0,
        "meta_classification_type": "U",
        "meta_norad_cat_id": 29522,
        "meta_element_set_no": 999,
        "meta_rev_at_epoch": 98792,
        "meta_bstar": 0.00010343439,
        "meta_mean_motion_dot": 1.57e-06,
        "meta_mean_motion_ddot": 0,
        "tle_line1": "1 29522U 06050A   25359.99431614  .00000157  00000+0  10343-3 0  9998",
        "tle_line2": "2 29522  98.7393   5.1074 0009976 185.4741 174.6325 14.14925066987920"
      },
      "geometry": {
        "type": "Point",
        "coordinates": [
          20.46411088355466,
          -59.53746030925629
        ]
      }
    },
    {
      "type": "Feature",
      "properties": {
        "norad_id": 32958,
        "name": "FENGYUN 3A",
        "group": "weather",
        "lat": -54.517000448428156,
        "lon": 107.07732550168798,
        "alt_km": 829.2901986684537,
        "timestamp": "2025-12-26T04:40:05.429485+00:00",
        "meta_object_name": "FENGYUN 3A",
        "meta_object_id": "2008-026A",
        "meta_epoch": "2025-12-25T20:47:43.211904",
        "meta_mean_motion": 14.19518678,
        "meta_eccentricity": 0.00076064,
        "meta_inclination": 98.6714,
        "meta_ra_of_asc_node": 299.1179,
        "meta_arg_of_pericenter": 267.7947,
        "meta_mean_anomaly": 92.2359,
        "meta_ephemeris_type": 0,
        "meta_classification_type": "U",
        "meta_norad_cat_id": 32958,
        "meta_element_set_no": 999,
        "meta_rev_at_epoch": 91081,
        "meta_bstar": 8.5573603e-05,
        "meta_mean_motion_dot": 1.37e-06,
        "meta_mean_motion_ddot": 0,
        "tle_line1": "1 32958U 08026A   25359.86647236  .00000137  00000+0  85574-4 0  9992",
        "tle_line2": "2 32958  98.6714 299.1179 0007606 267.7947  92.2359 14.19518678910812"
      },
      "geometry": {
        "type": "Point",
        "coordinates": [
          107.07732550168798,
          -54.517000448428156
        ]
      }
    },
    {
      "type": "Feature",
      "properties": {
        "norad_id": 35491,
        "name": "GOES 14",
        "group": "weather",
        "lat": -0.7597464526996125,
        "lon": 46.741489742184534,
        "alt_km": 35837.11447291274,
        "timestamp": "2025-12-26T04:40:05.429499+00:00",
        "meta_object_name": "GOES 14",
        "meta_object_id": "2009-033A",
        "meta_epoch": "2025-12-25T15:55:40.730304",
        "meta_mean_motion": 1.00097035,
        "meta_eccentricity": 7.192e-05,
        "meta_inclination": 1.2354,
        "meta_ra_of_asc_node": 85.272,
        "meta_arg_of_pericenter": 193.0437,
        "meta_mean_anomaly": 297.1266,
        "meta_ephemeris_type": 0,
        "meta_classification_type": "U",
        "meta_norad_cat_id": 35491,
        "meta_element_set_no": 999,
        "meta_rev_at_epoch": 485,
        "meta_bstar": 0,
        "meta_mean_motion_dot": 3.9e-07,
        "meta_mean_motion_ddot": 0,
        "tle_line1": "1 35491U 09033A   25359.66366586  .00000039  00000+0  00000+0 0  9997",
        "tle_line2": "2 35491   1.2354  85.2720 0000719 193.0437 297.1266  1.00097035  4852"
      },
      "geometry": {
        "type": "Point",
        "coordinates": [
          46.741489742184534,
          -0.7597464526996125
        ]
      }
    },
    {
      "type": "Feature",
      "properties": {
        "norad_id": 35951,
        "name": "DMSP 5D-3 F18 (USA 210)",
        "group": "weather",
        "lat": 19.924454138074225,
        "lon": 159.77951768712438,
        "alt_km": 848.7654847779067,
        "timestamp": "2025-12-26T04:40:05.429512+00:00",
        "meta_object_name": "DMSP 5D-3 F18 (USA 210)",
        "meta_object_id": "2009-057A",
        "meta_epoch": "2025-12-25T22:49:28.112448",
        "meta_mean_motion": 14.14777842,
        "meta_eccentricity": 0.00116652,
        "meta_inclination": 98.8851,
        "meta_ra_of_asc_node": 336.2867,
        "meta_arg_of_pericenter": 27.7919,
        "meta_mean_anomaly": 332.3875,
        "meta_ephemeris_type": 0,
        "meta_classification_type": "U",
        "meta_norad_cat_id": 35951,
        "meta_element_set_no": 999,
        "meta_rev_at_epoch": 83509,
        "meta_bstar": 0.00016638241,
        "meta_mean_motion_dot": 2.76e-06,
        "meta_mean_motion_ddot": 0,
        "tle_line1": "1 35951U 09057A   25359.95101982  .00000276  00000+0  16638-3 0  9994",
        "tle_line2": "2 35951  98.8851 336.2867 0011665  27.7919 332.3875 14.14777842835094"
      },
      "geometry": {
        "type": "Point",
        "coordinates": [
          159.77951768712438,
          19.924454138074225
        ]
      }
    },
    {
      "type": "Feature",
      "properties": {
        "norad_id": 36411,
        "name": "EWS-G2 (GOES 15)",
        "group": "weather",
        "lat": 0.5299992642802741,
        "lon": -133.7274438727824,
        "alt_km": 35767.77471582086,
        "timestamp": "2025-12-26T04:40:05.429526+00:00",
        "meta_object_name": "EWS-G2 (GOES 15)",
        "meta_object_id": "2010-008A",
        "meta_epoch": "2025-12-25T19:19:50.262240",
        "meta_mean_motion": 1.00271116,
        "meta_eccentricity": 0.00056146,
        "meta_inclination": 0.844,
        "meta_ra_of_asc_node": 86.0667,
        "meta_arg_of_pericenter": 179.3829,
        "meta_mean_anomaly": 180.4208,
        "meta_ephemeris_type": 0,
        "meta_classification_type": "U",
        "meta_norad_cat_id": 36411,
        "meta_element_set_no": 999,
        "meta_rev_at_epoch": 5790,
        "meta_bstar": 0,
        "meta_mean_motion_dot": 6e-07,
        "meta_mean_motion_ddot": 0,
        "tle_line1": "1 36411U 10008A   25359.80544285  .00000060  00000+0  00000+0 0  9998",
        "tle_line2": "2 36411   0.8440  86.0667 0005614 179.3829 180.4208  1.00271116 57904"
      },
      "geometry": {
        "type": "Point",
        "coordinates": [
          -133.7274438727824,
          0.5299992642802741
        ]
      }
    }
  ]
}